{"type": "FeatureCollection", "features": [ {"type": "Feature", "properties": {"norad_id": 29892, "name": "FENGYUN 1C DEB", "group": "fengyun-1c-debris", "lat": 76.79215781987399, "lon": 13.361799189386055, "alt_km": 901.2465124708724, "timestamp": "2025-12-27T09:28:56.748406+00:00", "meta": {"OBJECT_NAME": "FENGYUN 1C DEB", "OBJECT_ID": "1999-025GN", "EPOCH": "2025-12-27T04:49:13.089216", "MEAN_MOTION": 14.32484791, "ECCENTRICITY": 0.0192519, "INCLINATION": 99.1801, "RA_OF_ASC_NODE": 149.6019, "ARG_OF_PERICENTER": 255.668, "MEAN_ANOMALY": 283.5671, "EPHEMERIS_TYPE": 0, "CLASSIFICATION_TYPE": "U", "NORAD_CAT_ID": 29892, "ELEMENT_SET_NO": 999, "REV_AT_EPOCH": 96856, "BSTAR": 0.0041857, "MEAN_MOTION_DOT": 0.00013897, "MEAN_MOTION_DDOT": 0}, "tle": {"line1": "1 29892U 99025GN  25361.20084594  .00013897  00000+0  41857-2 0  9998", "line2": "2 29892  99.1801 149.6019 0192519 255.6680 283.5671 14.32484791968568"}}, "geometry": {"type": "Point", "coordinates": [13.361799189386055, 76.79215781987399]}}, {"type": "Feature", "properties": {"norad_id": 29893, "name": "FENGYUN 1C DEB", "group": "fengyun-1c-debris", "lat": -42.56627201732959, "lon": 103.99876865556422, "alt_km": 1089.5895762854352, "timestamp": "2025-12-27T09:28:56.748417+00:00", "meta": {"OBJECT_NAME": "FENGYUN 1C DEB", "OBJECT_ID": "1999-025GP", "EPOCH": "2025-12-27T04:46:29.661024", "MEAN_MOTION": 13.79468291, "ECCENTRICITY": 0.017391, "INCLINATION": 98.5528, "RA_OF_ASC_NODE": 95.8769, "ARG_OF_PERICENTER": 114.4751, "MEAN_ANOMALY": 309.6888, "EPHEMERIS_TYPE": 0, "CLASSIFICATION_TYPE": "U", "NORAD_CAT_ID": 29893, "ELEMENT_SET_NO": 999, "REV_AT_EPOCH": 95339, "BSTAR": 0.00021562, "MEAN_MOTION_DOT": 2.12e-06, "MEAN_MOTION_DDOT": 0}, "tle": {"line1": "1 29893U 99025GP  25361.19895441  .00000212  00000+0  21562-3 0  9997", "line2": "2 29893  98.5528  95.8769 0173910 114.4751 309.6888 13.79468291953399"}}, "geometry": {"type": "Point", "coordinates": [103.99876865556422, -42.56627201732959]}}, {"type": "Feature", "properties": {"norad_id": 29894, "name": "FENGYUN 1C DEB", "group": "fengyun-1c-debris", "lat": 66.69180761787946, "lon": 32.94302563716752, "alt_km": 895.0133669154784, "timestamp": "2025-12-27T09:28:56.748427+00:00", "meta": {"OBJECT_NAME": "FENGYUN 1C DEB", "OBJECT_ID": "1999-025GQ", "EPOCH": "2025-12-26T21:13:13.894176", "MEAN_MOTION": 13.80989787, "ECCENTRICITY": 0.0167912, "INCLINATION": 99.4842, "RA_OF_ASC_NODE": 55.2597, "ARG_OF_PERICENTER": 7.6441, "MEAN_ANOMALY": 40.6238, "EPHEMERIS_TYPE": 0, "CLASSIFICATION_TYPE": "U", "NORAD_CAT_ID": 29894, "ELEMENT_SET_NO": 999, "REV_AT_EPOCH": 95272, "BSTAR": 0.00056811, "MEAN_MOTION_DOT": 6.22e-06, "MEAN_MOTION_DDOT": 0}, "tle": {"line1": "1 29894U 99025GQ  25360.88418859  .00000622  00000+0  56811-3 0  9997", "line2": "2 29894  99.4842  55.2597 0167912   7.6441  40.6238 13.80989787952729"}}, "geometry": {"type": "Point", "coordinates": [32.94302563716752, 66.69180761787946]}}, {"type": "Feature", "properties": {"norad_id": 29895, "name": "FENGYUN 1C DEB", "group": "fengyun-1c-debris", "lat": 14.603587565066352, "lon": -66.19236976060014, "alt_km": 1025.4168468002817, "timestamp": "2025-12-27T09:28:56.748437+00:00", "meta": {"OBJECT_NAME": "FENGYUN 1C DEB", "OBJECT_ID": "1999-025GR", "EPOCH": "2025-12-26T05:43:11.344800", "MEAN_MOTION": 14.08368824, "ECCENTRICITY": 0.0299829, "INCLINATION": 99.8838, "RA_OF_ASC_NODE": 109.9359, "ARG_OF_PERICENTER": 306.7105, "MEAN_ANOMALY": 118.7931, "EPHEMERIS_TYPE": 0, "CLASSIFICATION_TYPE": "U", "NORAD_CAT_ID": 29895, "ELEMENT_SET_NO": 999, "REV_AT_EPOCH": 95714, "BSTAR": 0.0023139, "MEAN_MOTION_DOT": 5.937e-05, "MEAN_MOTION_DDOT": 0}, "tle": {"line1": "1 29895U 99025GR  25360.23832575  .00005937  00000+0  23139-2 0  9992", "line2": "2 29895  99.8838 109.9359 0299829 306.7105 118.7931 14.08368824957147"}}, "geometry": {"type": "Point", "coordinates": [-66.19236976060014, 14.603587565066352]}}, {"type": "Feature", "properties": {"norad_id": 29896, "name": "FENGYUN 1C DEB", "group": "fengyun-1c-debris", "lat": 44.29750634244374, "lon": 82.04168359095152, "alt_km": 949.5474256799389, "timestamp": "2025-12-27T09:28:56.748447+00:00", "meta": {"OBJECT_NAME": "FENGYUN 1C DEB", "OBJECT_ID": "1999-025GS", "EPOCH": "2025-12-26T15:33:39.345984", "MEAN_MOTION": 13.65386095, "ECCENTRICITY": 0.02401423, "INCLINATION": 99.4223, "RA_OF_ASC_NODE": 251.9913, "ARG_OF_PERICENTER": 66.1833, "MEAN_ANOMALY": 357.549, "EPHEMERIS_TYPE": 0, "CLASSIFICATION_TYPE": "U", "NORAD_CAT_ID": 29896, "ELEMENT_SET_NO": 999, "REV_AT_EPOCH": 94232, "BSTAR": 0.00073540281, "MEAN_MOTION_DOT": 6.88e-06, "MEAN_MOTION_DDOT": 0}, "tle": {"line1": "1 29896U 99025GS  25360.64837206  .00000688  00000+0  73540-3 0  9994", "line2": "2 29896  99.4223 251.9913 0240142  66.1833 357.5490 13.65386095942324"}}, "geometry": {"type": "Point", "coordinates": [82.04168359095152, 44.29750634244374]}}, {"type": "Feature", "properties": {"norad_id": 29897, "name": "FENGYUN 1C DEB", "group": "fengyun-1c-debris", "lat": -22.02009825231071, "lon": -132.58424576885673, "alt_km": 1165.1661582736779, "timestamp": "2025-12-27T09:28:56.748457+00:00", "meta": {"OBJECT_NAME": "FENGYUN 1C DEB", "OBJECT_ID": "1999-025GT", "EPOCH": "2025-12-26T14:16:29.626176", "MEAN_MOTION": 13.57238162, "ECCENTRICITY": 0.0297271, "INCLINATION": 98.6289, "RA_OF_ASC_NODE": 223.1915, "ARG_OF_PERICENTER": 102.5104, "MEAN_ANOMALY": 289.915, "EPHEMERIS_TYPE": 0, "CLASSIFICATION_TYPE": "U", "NORAD_CAT_ID": 29897, "ELEMENT_SET_NO": 999, "REV_AT_EPOCH": 93128, "BSTAR": 0.0022838, "MEAN_MOTION_DOT": 2.137e-05, "MEAN_MOTION_DDOT": 0}, "tle": {"line1": "1 29897U 99025GT  25360.59478734  .00002137  00000+0  22838-2 0  9990", "line2": "2 29897  98.6289 223.1915 0297271 102.5104 289.9150 13.57238162931288"}}, "geometry": {"type": "Point", "coordinates": [-132.58424576885673, -22.02009825231071]}}, {"type": "Feature", "properties": {"norad_id": 29898, "name": "FENGYUN 1C DEB", "group": "fengyun-1c-debris", "lat": -4.637301361045489, "lon": -7.656038677199125, "alt_km": 1282.9132617268951, "timestamp": "2025-12-27T09:28:56.748468+00:00", "meta": {"OBJECT_NAME": "FENGYUN 1C DEB", "OBJECT_ID": "1999-025GU", "EPOCH": "2025-12-26T23:16:53.368896", "MEAN_MOTION": 13.70382312, "ECCENTRICITY": 0.0427161, "INCLINATION": 98.2237, "RA_OF_ASC_NODE": 351.3069, "ARG_OF_PERICENTER": 150.8462, "MEAN_ANOMALY": 271.036, "EPHEMERIS_TYPE": 0, "CLASSIFICATION_TYPE": "U", "NORAD_CAT_ID": 29898, "ELEMENT_SET_NO": 999, "REV_AT_EPOCH": 93356, "BSTAR": 0.0016662, "MEAN_MOTION_DOT": 2.781e-05, "MEAN_MOTION_DDOT": 0}, "tle": {"line1": "1 29898U 99025GU  25360.97006214  .00002781  00000+0  16662-2 0  9996", "line2": "2 29898  98.2237 351.3069 0427161 150.8462 271.0360 13.70382312933568"}}, "geometry": {"type": "Point", "coordinates": [-7.656038677199125, -4.637301361045489]}}, {"type": "Feature", "properties": {"norad_id": 29899, "name": "FENGYUN 1C DEB", "group": "fengyun-1c-debris", "lat": 62.82414396670935, "lon": -7.964885487468018, "alt_km": 1029.190968746062, "timestamp": "2025-12-27T09:28:56.748478+00:00", "meta": {"OBJECT_NAME": "FENGYUN 1C DEB", "OBJECT_ID": "1999-025GV", "EPOCH": "2025-12-26T09:35:57.223104", "MEAN_MOTION": 13.37496684, "ECCENTRICITY": 0.0353309, "INCLINATION": 98.6623, "RA_OF_ASC_NODE": 153.9132, "ARG_OF_PERICENTER": 44.6961, "MEAN_ANOMALY": 318.2076, "EPHEMERIS_TYPE": 0, "CLASSIFICATION_TYPE": "U", "NORAD_CAT_ID": 29899, "ELEMENT_SET_NO": 999, "REV_AT_EPOCH": 92267, "BSTAR": 0.00023214, "MEAN_MOTION_DOT": 1.41e-06, "MEAN_MOTION_DDOT": 0}, "tle": {"line1": "1 29899U 99025GV  25360.39996786  .00000141  00000+0  23214-3 0  9995", "line2": "2 29899  98.6623 153.9132 0353309  44.6961 318.2076 13.37496684922674"}}, "geometry": {"type": "Point", "coordinates": [-7.964885487468018, 62.82414396670935]}}, {"type": "Feature", "properties": {"norad_id": 29901, "name": "FENGYUN 1C DEB", "group": "fengyun-1c-debris", "lat": 74.95395322166462, "lon": 135.18060163567844, "alt_km": 1408.5375666740092, "timestamp": "2025-12-27T09:28:56.748488+00:00", "meta": {"OBJECT_NAME": "FENGYUN 1C DEB", "OBJECT_ID": "1999-025GX", "EPOCH": "2025-12-26T10:01:54.023232", "MEAN_MOTION": 13.33262014, "ECCENTRICITY": 0.0379276, "INCLINATION": 98.745, "RA_OF_ASC_NODE": 169.2751, "ARG_OF_PERICENTER": 251.1925, "MEAN_ANOMALY": 179.7703, "EPHEMERIS_TYPE": 0, "CLASSIFICATION_TYPE": "U", "NORAD_CAT_ID": 29901, "ELEMENT_SET_NO": 999, "REV_AT_EPOCH": 92101, "BSTAR": 0.00046026, "MEAN_MOTION_DOT": 3.01e-06, "MEAN_MOTION_DDOT": 0}, "tle": {"line1": "1 29901U 99025GX  25360.41798638  .00000301  00000+0  46026-3 0  9992", "line2": "2 29901  98.7450 169.2751 0379276 251.1925 179.7703 13.33262014921018"}}, "geometry": {"type": "Point", "coordinates": [135.18060163567844, 74.95395322166462]}}, {"type": "Feature", "properties": {"norad_id": 29904, "name": "FENGYUN 1C DEB", "group": "fengyun-1c-debris", "lat": 34.780491503041304, "lon": 33.85422293931357, "alt_km": 813.7315201743177, "timestamp": "2025-12-27T09:28:56.748499+00:00", "meta": {"OBJECT_NAME": "FENGYUN 1C DEB", "OBJECT_ID": "1999-025HA", "EPOCH": "2025-12-27T01:00:22.849632", "MEAN_MOTION": 14.44533539, "ECCENTRICITY": 0.0207394, "INCLINATION": 99.0401, "RA_OF_ASC_NODE": 39.8268, "ARG_OF_PERICENTER": 275.9956, "MEAN_ANOMALY": 81.7634, "EPHEMERIS_TYPE": 0, "CLASSIFICATION_TYPE": "U", "NORAD_CAT_ID": 29904, "ELEMENT_SET_NO": 999, "REV_AT_EPOCH": 99270, "BSTAR": 0.00046779, "MEAN_MOTION_DOT": 2.041e-05, "MEAN_MOTION_DDOT": 0}, "tle": {"line1": "1 29904U 99025HA  25361.04193113  .00002041  00000+0  46779-3 0  9990", "line2": "2 29904  99.0401  39.8268 0207394 275.9956  81.7634 14.44533539992700"}}, "geometry": {"type": "Point", "coordinates": [33.85422293931357, 34.780491503041304]}}]}